{"type": "FeatureCollection", "features": [ {"type": "Feature", "properties": {"norad_id": 40697, "name": "SENTINEL-2A", "group": "resource", "lat": -25.13968963337628, "lon": 67.43237783866111, "alt_km": 794.8555257754597, "timestamp": "2025-12-16T21:38:56.826959+00:00", "meta": {"OBJECT_NAME": "SENTINEL-2A", "OBJECT_ID": "2015-028A", "EPOCH": "2025-12-16T08:20:28.212000", "MEAN_MOTION": 14.30814406, "ECCENTRICITY": 0.00010495, "INCLINATION": 98.569, "RA_OF_ASC_NODE": 62.8284, "ARG_OF_PERICENTER": 88.7162, "MEAN_ANOMALY": 271.4141, "EPHEMERIS_TYPE": 0, "CLASSIFICATION_TYPE": "U", "NORAD_CAT_ID": 40697, "ELEMENT_SET_NO": 999, "REV_AT_EPOCH": 54758, "BSTAR": 1.5898545e-05, "MEAN_MOTION_DOT": -2e-08, "MEAN_MOTION_DDOT": 0}, "tle": {"line1": "1 40697U 15028A   25350.34754875 -.00000002  00000+0  15899-4 0  9998", "line2": "2 40697  98.5690  62.8284 0001049  88.7162 271.4141 14.30814406547581"}}, "geometry": {"type": "Point", "coordinates": [67.43237783866111, -25.13968963337628]}}, {"type": "Feature", "properties": {"norad_id": 40701, "name": "GAOFEN-8", "group": "resource", "lat": -14.36864343217972, "lon": -12.739693906456521, "alt_km": 452.0505329546495, "timestamp": "2025-12-16T21:38:56.826969+00:00", "meta": {"OBJECT_NAME": "GAOFEN-8", "OBJECT_ID": "2015-030A", "EPOCH": "2025-12-16T08:19:17.768352", "MEAN_MOTION": 15.38665586, "ECCENTRICITY": 0.00117968, "INCLINATION": 97.6907, "RA_OF_ASC_NODE": 168.6619, "ARG_OF_PERICENTER": 126.1233, "MEAN_ANOMALY": 234.1105, "EPHEMERIS_TYPE": 0, "CLASSIFICATION_TYPE": "U", "NORAD_CAT_ID": 40701, "ELEMENT_SET_NO": 999, "REV_AT_EPOCH": 58326, "BSTAR": 0.00028875659, "MEAN_MOTION_DOT": 0.00010969, "MEAN_MOTION_DDOT": 0}, "tle": {"line1": "1 40701U 15030A   25350.34673343  .00010969  00000+0  28876-3 0  9997", "line2": "2 40701  97.6907 168.6619 0011796 126.1233 234.1105 15.38665586583264"}}, "geometry": {"type": "Point", "coordinates": [-12.739693906456521, -14.36864343217972]}}, {"type": "Feature", "properties": {"norad_id": 40718, "name": "CARBONITE 1 (CBNT-1)", "group": "resource", "lat": 9.482296733375396, "lon": 170.47742740365365, "alt_km": 631.8362523816359, "timestamp": "2025-12-16T21:38:56.826979+00:00", "meta": {"OBJECT_NAME": "CARBONITE 1 (CBNT-1)", "OBJECT_ID": "2015-032D", "EPOCH": "2025-12-16T08:38:56.990112", "MEAN_MOTION": 14.82760365, "ECCENTRICITY": 0.00146526, "INCLINATION": 97.6401, "RA_OF_ASC_NODE": 171.2445, "ARG_OF_PERICENTER": 169.3198, "MEAN_ANOMALY": 190.833, "EPHEMERIS_TYPE": 0, "CLASSIFICATION_TYPE": "U", "NORAD_CAT_ID": 40718, "ELEMENT_SET_NO": 999, "REV_AT_EPOCH": 56224, "BSTAR": 6.1790231e-05, "MEAN_MOTION_DOT": 4.5e-06, "MEAN_MOTION_DDOT": 0}, "tle": {"line1": "1 40718U 15032D   25350.36038183  .00000450  00000+0  61790-4 0  9993", "line2": "2 40718  97.6401 171.2445 0014652 169.3198 190.8330 14.82760365562243"}}, "geometry": {"type": "Point", "coordinates": [170.47742740365365, 9.482296733375396]}}, {"type": "Feature", "properties": {"norad_id": 40878, "name": "YAOGAN-27", "group": "resource", "lat": 79.04062753574931, "lon": -132.66977257283156, "alt_km": 1198.1499588309707, "timestamp": "2025-12-16T21:38:56.826990+00:00", "meta": {"OBJECT_NAME": "YAOGAN-27", "OBJECT_ID": "2015-040A", "EPOCH": "2025-12-16T08:23:59.978400", "MEAN_MOTION": 13.16060392, "ECCENTRICITY": 0.00076093, "INCLINATION": 100.1009, "RA_OF_ASC_NODE": 339.8069, "ARG_OF_PERICENTER": 277.9781, "MEAN_ANOMALY": 82.0469, "EPHEMERIS_TYPE": 0, "CLASSIFICATION_TYPE": "U", "NORAD_CAT_ID": 40878, "ELEMENT_SET_NO": 999, "REV_AT_EPOCH": 49361, "BSTAR": 0.00061124144, "MEAN_MOTION_DOT": 1.9e-06, "MEAN_MOTION_DDOT": 0}, "tle": {"line1": "1 40878U 15040A   25350.34999975  .00000190  00000+0  61124-3 0  9993", "line2": "2 40878 100.1009 339.8069 0007609 277.9781  82.0469 13.16060392493614"}}, "geometry": {"type": "Point", "coordinates": [-132.66977257283156, 79.04062753574931]}}, {"type": "Feature", "properties": {"norad_id": 40894, "name": "GAOFEN-9 01", "group": "resource", "lat": -72.92779441952742, "lon": 55.64641687272379, "alt_km": 630.8418010303594, "timestamp": "2025-12-16T21:38:56.827000+00:00", "meta": {"OBJECT_NAME": "GAOFEN-9 01", "OBJECT_ID": "2015-047A", "EPOCH": "2025-12-16T07:24:18.511776", "MEAN_MOTION": 14.82431266, "ECCENTRICITY": 0.00281123, "INCLINATION": 97.6539, "RA_OF_ASC_NODE": 29.1099, "ARG_OF_PERICENTER": 22.8927, "MEAN_ANOMALY": 337.3534, "EPHEMERIS_TYPE": 0, "CLASSIFICATION_TYPE": "U", "NORAD_CAT_ID": 40894, "ELEMENT_SET_NO": 999, "REV_AT_EPOCH": 55309, "BSTAR": 0.00014551679, "MEAN_MOTION_DOT": 1.123e-05, "MEAN_MOTION_DDOT": 0}, "tle": {"line1": "1 40894U 15047A   25350.30854759  .00001123  00000+0  14552-3 0  9994", "line2": "2 40894  97.6539  29.1099 0028112  22.8927 337.3534 14.82431266553097"}}, "geometry": {"type": "Point", "coordinates": [55.64641687272379, -72.92779441952742]}}, {"type": "Feature", "properties": {"norad_id": 41026, "name": "YAOGAN-28", "group": "resource", "lat": -15.307920956447926, "lon": 130.58179130422107, "alt_km": 502.6369603385983, "timestamp": "2025-12-16T21:38:56.827010+00:00", "meta": {"OBJECT_NAME": "YAOGAN-28", "OBJECT_ID": "2015-064A", "EPOCH": "2025-12-16T09:06:49.252608", "MEAN_MOTION": 15.24416287, "ECCENTRICITY": 0.0012519, "INCLINATION": 97.2802, "RA_OF_ASC_NODE": 128.069, "ARG_OF_PERICENTER": 114.3221, "MEAN_ANOMALY": 245.9325, "EPHEMERIS_TYPE": 0, "CLASSIFICATION_TYPE": "U", "NORAD_CAT_ID": 41026, "ELEMENT_SET_NO": 999, "REV_AT_EPOCH": 56280, "BSTAR": 0.00025667984, "MEAN_MOTION_DOT": 6.238e-05, "MEAN_MOTION_DDOT": 0}, "tle": {"line1": "1 41026U 15064A   25350.37973672  .00006238  00000+0  25668-3 0  9996", "line2": "2 41026  97.2802 128.0690 0012519 114.3221 245.9325 15.24416287562802"}}, "geometry": {"type": "Point", "coordinates": [130.58179130422107, -15.307920956447926]}}, {"type": "Feature", "properties": {"norad_id": 41038, "name": "YAOGAN-29", "group": "resource", "lat": -0.5762439753329016, "lon": -165.99366775121425, "alt_km": 623.1987219165994, "timestamp": "2025-12-16T21:38:56.827020+00:00", "meta": {"OBJECT_NAME": "YAOGAN-29", "OBJECT_ID": "2015-069A", "EPOCH": "2025-12-16T07:52:56.130816", "MEAN_MOTION": 14.82886718, "ECCENTRICITY": 1.889e-05, "INCLINATION": 98.0223, "RA_OF_ASC_NODE": 13.5121, "ARG_OF_PERICENTER": 201.7531, "MEAN_ANOMALY": 158.3674, "EPHEMERIS_TYPE": 0, "CLASSIFICATION_TYPE": "U", "NORAD_CAT_ID": 41038, "ELEMENT_SET_NO": 999, "REV_AT_EPOCH": 54352, "BSTAR": 2.5498115e-05, "MEAN_MOTION_DOT": 1.53e-06, "MEAN_MOTION_DDOT": 0}, "tle": {"line1": "1 41038U 15069A   25350.32842744  .00000153  00000+0  25498-4 0  9996", "line2": "2 41038  98.0223  13.5121 0000188 201.7531 158.3674 14.82886718543527"}}, "geometry": {"type": "Point", "coordinates": [-165.99366775121425, -0.5762439753329016]}}, {"type": "Feature", "properties": {"norad_id": 41167, "name": "KENT RIDGE 1", "group": "resource", "lat": -0.9985410546455462, "lon": 176.52433612708867, "alt_km": 503.84532716798094, "timestamp": "2025-12-16T21:38:56.827031+00:00", "meta": {"OBJECT_NAME": "KENT RIDGE 1", "OBJECT_ID": "2015-077B", "EPOCH": "2025-12-16T04:21:40.220064", "MEAN_MOTION": 15.21665252, "ECCENTRICITY": 0.00084925, "INCLINATION": 14.9782, "RA_OF_ASC_NODE": 185.6007, "ARG_OF_PERICENTER": 179.6251, "MEAN_ANOMALY": 180.4078, "EPHEMERIS_TYPE": 0, "CLASSIFICATION_TYPE": "U", "NORAD_CAT_ID": 41167, "ELEMENT_SET_NO": 999, "REV_AT_EPOCH": 55316, "BSTAR": 0.00013603568, "MEAN_MOTION_DOT": 3.923e-05, "MEAN_MOTION_DDOT": 0}, "tle": {"line1": "1 41167U 15077B   25350.18171551  .00003923  00000+0  13604-3 0  9996", "line2": "2 41167  14.9782 185.6007 0008492 179.6251 180.4078 15.21665252553166"}}, "geometry": {"type": "Point", "coordinates": [176.52433612708867, -0.9985410546455462]}}, {"type": "Feature", "properties": {"norad_id": 41194, "name": "GAOFEN-4", "group": "resource", "lat": 0.17423276728461318, "lon": 156.18816300046504, "alt_km": 35774.24539610319, "timestamp": "2025-12-16T21:38:56.827044+00:00", "meta": {"OBJECT_NAME": "GAOFEN-4", "OBJECT_ID": "2015-083A", "EPOCH": "2025-12-16T08:43:26.978880", "MEAN_MOTION": 1.00273836, "ECCENTRICITY": 0.00029274, "INCLINATION": 0.1795, "RA_OF_ASC_NODE": 81.6086, "ARG_OF_PERICENTER": 97.3514, "MEAN_ANOMALY": 142.8439, "EPHEMERIS_TYPE": 0, "CLASSIFICATION_TYPE": "U", "NORAD_CAT_ID": 41194, "ELEMENT_SET_NO": 999, "REV_AT_EPOCH": 3669, "BSTAR": 0, "MEAN_MOTION_DOT": -3.12e-06, "MEAN_MOTION_DDOT": 0}, "tle": {"line1": "1 41194U 15083A   25350.36350670 -.00000312  00000+0  00000+0 0  9996", "line2": "2 41194   0.1795  81.6086 0002927  97.3514 142.8439  1.00273836 36696"}}, "geometry": {"type": "Point", "coordinates": [156.18816300046504, 0.17423276728461318]}}, {"type": "Feature", "properties": {"norad_id": 41240, "name": "JASON-3", "group": "resource", "lat": 14.790377228554089, "lon": -37.668694206949446, "alt_km": 1312.392455333139, "timestamp": "2025-12-16T21:38:56.827055+00:00", "meta": {"OBJECT_NAME": "JASON-3", "OBJECT_ID": "2016-002A", "EPOCH": "2025-12-16T07:45:09.812736", "MEAN_MOTION": 12.8762674, "ECCENTRICITY": 0.00071722, "INCLINATION": 66.0394, "RA_OF_ASC_NODE": 150.2906, "ARG_OF_PERICENTER": 271.0111, "MEAN_ANOMALY": 89.0086, "EPHEMERIS_TYPE": 0, "CLASSIFICATION_TYPE": "U", "NORAD_CAT_ID": 41240, "ELEMENT_SET_NO": 999, "REV_AT_EPOCH": 46370, "BSTAR": 0.00012343072, "MEAN_MOTION_DOT": -3.1e-07, "MEAN_MOTION_DDOT": 0}, "tle": {"line1": "1 41240U 16002A   25350.32303024 -.00000031  00000+0  12343-3 0  9992", "line2": "2 41240  66.0394 150.2906 0007172 271.0111  89.0086 12.87626740463708"}}, "geometry": {"type": "Point", "coordinates": [-37.668694206949446, 14.790377228554089]}}]}